[{"OBJECT_NAME":"STARLINK-5270","OBJECT_ID":"2023-010AG","EPOCH":"2026-03-09T21:30:57.397824","MEAN_MOTION":14.9832395,"ECCENTRICITY":0.00027794,"INCLINATION":70.0014,"RA_OF_ASC_NODE":23.7967,"ARG_OF_PERICENTER":270.2355,"MEAN_ANOMALY":89.8485,"EPHEMERIS_TYPE":0,"CLASSIFICATION_TYPE":"U","NORAD_CAT_ID":55299,"ELEMENT_SET_NO":999,"REV_AT_EPOCH":17418,"BSTAR":5.9683956e-5,"MEAN_MOTION_DOT":6.19e-6,"MEAN_MOTION_DDOT":0},{"OBJECT_NAME":"SCOUT X-4 DEB","OBJECT_ID":"1963-053J","EPOCH":"2026-03-09T16:55:00.113088","MEAN_MOTION":14.81958963,"ECCENTRICITY":0.01635672,"INCLINATION":78.5671,"RA_OF_ASC_NODE":172.6466,"ARG_OF_PERICENTER":287.7652,"MEAN_ANOMALY":70.5757,"EPHEMERIS_TYPE":0,"CLASSIFICATION_TYPE":"U","NORAD_CAT_ID":3750,"ELEMENT_SET_NO":999,"REV_AT_EPOCH":79379,"BSTAR":0.0036900022,"MEAN_MOTION_DOT":0.00037093,"MEAN_MOTION_DDOT":0}]
